start=new Date('2022-01-26T00:00:00.000Z').valueOf();
sats=[{"SITE":"AFETR","TIME_SYSTEM":"UTC","ARG_OF_PERICENTER":"63.6916","PERIOD":"95.592","TLE_LINE2":"2 47362  53.0544 333.9723 0001691  63.6916 296.4246 15.06400247 56332","OBJECT_ID":"2021-005P","MEAN_MOTION_DDOT":"0.0000000000000","MEAN_ANOMALY":"296.4246","MEAN_MOTION":"15.06400247","RCS_SIZE":"LARGE","FILE":"3283407","GP_ID":"194612172","PERIAPSIS":"546.042","ELEMENT_SET_NO":"999","OBJECT_NAME":"STARLINK-2076","SEMIMAJOR_AXIS":"6925.348","BSTAR":"0.00118810000000","INCLINATION":"53.0544","EPHEMERIS_TYPE":"0","CLASSIFICATION_TYPE":"U","ECCENTRICITY":"0.00016910","APOAPSIS":"548.384","NORAD_CAT_ID":"47362","DECAY_DATE":null,"RA_OF_ASC_NODE":"333.9723","COUNTRY_CODE":"US","LAUNCH_DATE":"2021-01-20","REF_FRAME":"TEME","MEAN_ELEMENT_THEORY":"SGP4","TLE_LINE1":"1 47362U 21005P   22025.54917066  .00017460  00000-0  11881-2 0  9998","REV_AT_EPOCH":"5633","OBJECT_TYPE":"PAYLOAD","MEAN_MOTION_DOT":"0.00017460","EPOCH":"2022-01-25T13:10:48.345024","CENTER_NAME":"EARTH"},{"CLASSIFICATION_TYPE":"U","BSTAR":"-0.00004515800000","EPHEMERIS_TYPE":"0","INCLINATION":"53.0554","SEMIMAJOR_AXIS":"6925.363","OBJECT_NAME":"STARLINK-2077","NORAD_CAT_ID":"47363","ECCENTRICITY":"0.00018250","APOAPSIS":"548.492","RA_OF_ASC_NODE":"333.9464","DECAY_DATE":null,"COUNTRY_CODE":"US","LAUNCH_DATE":"2021-01-20","OBJECT_TYPE":"PAYLOAD","MEAN_MOTION_DOT":"-0.00000954","EPOCH":"2022-01-25T13:16:04.016064","REV_AT_EPOCH":"5633","TLE_LINE1":"1 47363U 21005Q   22025.55282426 -.00000954  00000-0 -45158-4 0  9993","MEAN_ELEMENT_THEORY":"SGP4","REF_FRAME":"TEME","CENTER_NAME":"EARTH","ARG_OF_PERICENTER":"59.4862","TIME_SYSTEM":"UTC","SITE":"AFETR","TLE_LINE2":"2 47363  53.0554 333.9464 0001825  59.4862 300.6307 15.06395179 56331","PERIOD":"95.592","OBJECT_ID":"2021-005Q","MEAN_ANOMALY":"300.6307","MEAN_MOTION_DDOT":"0.0000000000000","RCS_SIZE":"LARGE","MEAN_MOTION":"15.06395179","FILE":"3283407","ELEMENT_SET_NO":"999","PERIAPSIS":"545.964","GP_ID":"194610456"},{"COUNTRY_CODE":"US","RA_OF_ASC_NODE":"182.1071","DECAY_DATE":null,"NORAD_CAT_ID":"47365","APOAPSIS":"345.383","ECCENTRICITY":"0.00086180","INCLINATION":"53.0426","BSTAR":"0.00012522000000","EPHEMERIS_TYPE":"0","CLASSIFICATION_TYPE":"U","SEMIMAJOR_AXIS":"6717.729","OBJECT_NAME":"STARLINK-2080","CENTER_NAME":"EARTH","OBJECT_TYPE":"PAYLOAD","MEAN_MOTION_DOT":"0.00019964","EPOCH":"2022-01-25T20:06:24.142752","REV_AT_EPOCH":"5848","MEAN_ELEMENT_THEORY":"SGP4","TLE_LINE1":"1 47365U 21005S   22025.83777943  .00019964  00000-0  12522-3 0  9996","REF_FRAME":"TEME","LAUNCH_DATE":"2021-01-20","MEAN_ANOMALY":"70.2319","MEAN_MOTION_DDOT":"0.0000000000000","OBJECT_ID":"2021-005S","TLE_LINE2":"2 47365  53.0426 182.1071 0008618 289.7770  70.2319 15.76772531 58481","PERIOD":"91.326","TIME_SYSTEM":"UTC","ARG_OF_PERICENTER":"289.7770","SITE":"AFETR","ELEMENT_SET_NO":"999","PERIAPSIS":"333.805","GP_ID":"194643596","FILE":"3283711","RCS_SIZE":"LARGE","MEAN_MOTION":"15.76772531"},{"LAUNCH_DATE":"2021-01-20","TLE_LINE1":"1 47366U 21005T   22025.84401159  .00000197  00000-0  32141-4 0  9999","MEAN_ELEMENT_THEORY":"SGP4","REF_FRAME":"TEME","OBJECT_TYPE":"PAYLOAD","REV_AT_EPOCH":"5637","MEAN_MOTION_DOT":"0.00000197","EPOCH":"2022-01-25T20:15:22.601376","CENTER_NAME":"EARTH","OBJECT_NAME":"STARLINK-2081","BSTAR":"0.00003214100000","EPHEMERIS_TYPE":"0","INCLINATION":"53.0553","CLASSIFICATION_TYPE":"U","SEMIMAJOR_AXIS":"6925.340","NORAD_CAT_ID":"47366","APOAPSIS":"548.440","ECCENTRICITY":"0.00017830","DECAY_DATE":null,"RA_OF_ASC_NODE":"332.6532","COUNTRY_CODE":"US","MEAN_MOTION":"15.06402866","RCS_SIZE":"LARGE","FILE":"3283711","GP_ID":"194644346","ELEMENT_SET_NO":"999","PERIAPSIS":"545.970","SITE":"AFETR","TIME_SYSTEM":"UTC","ARG_OF_PERICENTER":"60.6611","PERIOD":"95.592","TLE_LINE2":"2 47366  53.0553 332.6532 0001783  60.6611 299.4556 15.06402866 56371","OBJECT_ID":"2021-005T","MEAN_MOTION_DDOT":"0.0000000000000","MEAN_ANOMALY":"299.4556"},{"PERIAPSIS":"545.940","ELEMENT_SET_NO":"999","GP_ID":"194611673","RCS_SIZE":"LARGE","MEAN_MOTION":"15.06398493","FILE":"3283407","OBJECT_ID":"2021-005U","MEAN_ANOMALY":"298.0601","MEAN_MOTION_DDOT":"0.0000000000000","TIME_SYSTEM":"UTC","ARG_OF_PERICENTER":"62.0575","SITE":"AFETR","TLE_LINE2":"2 47367  53.0563 335.2219 0001845  62.0575 298.0601 15.06398493 56295","PERIOD":"95.592","CENTER_NAME":"EARTH","LAUNCH_DATE":"2021-01-20","OBJECT_TYPE":"PAYLOAD","MEAN_MOTION_DOT":"0.00000527","EPOCH":"2022-01-25T06:32:40.518816","REV_AT_EPOCH":"5629","REF_FRAME":"TEME","MEAN_ELEMENT_THEORY":"SGP4","TLE_LINE1":"1 47367U 21005U   22025.27269119  .00000527  00000-0  54296-4 0  9997","RA_OF_ASC_NODE":"335.2219","DECAY_DATE":null,"COUNTRY_CODE":"US","SEMIMAJOR_AXIS":"6925.353","EPHEMERIS_TYPE":"0","BSTAR":"0.00005429600000","CLASSIFICATION_TYPE":"U","INCLINATION":"53.0563","OBJECT_NAME":"STARLINK-2082","APOAPSIS":"548.496","ECCENTRICITY":"0.00018450","NORAD_CAT_ID":"47367"},{"DECAY_DATE":null,"RA_OF_ASC_NODE":"335.2398","COUNTRY_CODE":"US","OBJECT_NAME":"STARLINK-2084","BSTAR":"0.00014134000000","EPHEMERIS_TYPE":"0","CLASSIFICATION_TYPE":"U","INCLINATION":"53.0543","SEMIMAJOR_AXIS":"6925.323","NORAD_CAT_ID":"47368","APOAPSIS":"548.444","ECCENTRICITY":"0.00018130","CENTER_NAME":"EARTH","LAUNCH_DATE":"2021-01-20","MEAN_ELEMENT_THEORY":"SGP4","TLE_LINE1":"1 47368U 21005V   22025.26533066  .00001825  00000-0  14134-3 0  9990","REF_FRAME":"TEME","MEAN_MOTION_DOT":"0.00001825","OBJECT_TYPE":"PAYLOAD","EPOCH":"2022-01-25T06:22:04.569024","REV_AT_EPOCH":"5629","OBJECT_ID":"2021-005V","MEAN_MOTION_DDOT":"0.0000000000000","MEAN_ANOMALY":"295.6976","SITE":"AFETR","ARG_OF_PERICENTER":"64.4200","TIME_SYSTEM":"UTC","PERIOD":"95.592","TLE_LINE2":"2 47368  53.0543 335.2398 0001813  64.4200 295.6976 15.06408224 56290","GP_ID":"194610956","ELEMENT_SET_NO":"999","PERIAPSIS":"545.933","MEAN_MOTION":"15.06408224","RCS_SIZE":"LARGE","FILE":"3283407"},{"ELEMENT_SET_NO":"999","PERIAPSIS":"545.980","GP_ID":"194644096","FILE":"3283711","RCS_SIZE":"LARGE","MEAN_MOTION":"15.06401903","MEAN_ANOMALY":"294.2338","MEAN_MOTION_DDOT":"0.0000000000000","OBJECT_ID":"2021-005W","TLE_LINE2":"2 47369  53.0562 312.2496 0001773  65.8836 294.2338 15.06401903 56677","PERIOD":"95.592","ARG_OF_PERICENTER":"65.8836","TIME_SYSTEM":"UTC","SITE":"AFETR","CENTER_NAME":"EARTH","OBJECT_TYPE":"PAYLOAD","EPOCH":"2022-01-25T22:25:24.766752","MEAN_MOTION_DOT":"0.00000624","REV_AT_EPOCH":"5667","TLE_LINE1":"1 47369U 21005W   22025.93431443  .00000624  00000-0  60811-4 0  9991","MEAN_ELEMENT_THEORY":"SGP4","REF_FRAME":"TEME","LAUNCH_DATE":"2021-01-20","COUNTRY_CODE":"US","RA_OF_ASC_NODE":"312.2496","DECAY_DATE":null,"NORAD_CAT_ID":"47369","ECCENTRICITY":"0.00017730","APOAPSIS":"548.436","BSTAR":"0.00006081100000","EPHEMERIS_TYPE":"0","INCLINATION":"53.0562","CLASSIFICATION_TYPE":"U","SEMIMAJOR_AXIS":"6925.343","OBJECT_NAME":"STARLINK-2085"},{"MEAN_MOTION_DDOT":"0.0000000000000","MEAN_ANOMALY":"305.9858","OBJECT_ID":"2021-005X","PERIOD":"95.592","TLE_LINE2":"2 47370  53.0547 292.4387 0001657  54.1285 305.9858 15.06399367 56958","SITE":"AFETR","ARG_OF_PERICENTER":"54.1285","TIME_SYSTEM":"UTC","GP_ID":"194643847","PERIAPSIS":"546.068","ELEMENT_SET_NO":"999","FILE":"3283711","MEAN_MOTION":"15.06399367","RCS_SIZE":"LARGE","COUNTRY_CODE":"US","DECAY_DATE":null,"RA_OF_ASC_NODE":"292.4387","APOAPSIS":"548.363","ECCENTRICITY":"0.00016570","NORAD_CAT_ID":"47370","OBJECT_NAME":"STARLINK-2086","SEMIMAJOR_AXIS":"6925.350","BSTAR":"0.00008317900000","EPHEMERIS_TYPE":"0","INCLINATION":"53.0547","CLASSIFICATION_TYPE":"U","CENTER_NAME":"EARTH","REF_FRAME":"TEME","MEAN_ELEMENT_THEORY":"SGP4","TLE_LINE1":"1 47370U 21005X   22025.89192792  .00000958  00000-0  83179-4 0  9991","OBJECT_TYPE":"PAYLOAD","MEAN_MOTION_DOT":"0.00000958","EPOCH":"2022-01-25T21:24:22.572288","REV_AT_EPOCH":"5695","LAUNCH_DATE":"2021-01-20"},{"OBJECT_ID":"2021-005Y","MEAN_MOTION_DDOT":"0.0000000000000","MEAN_ANOMALY":"293.5480","SITE":"AFETR","ARG_OF_PERICENTER":"66.5690","TIME_SYSTEM":"UTC","PERIOD":"95.592","TLE_LINE2":"2 47371  53.0552 333.9859 0001727  66.5690 293.5480 15.06407726 56339","GP_ID":"194612173","PERIAPSIS":"545.994","ELEMENT_SET_NO":"999","MEAN_MOTION":"15.06407726","RCS_SIZE":"LARGE","FILE":"3283407","DECAY_DATE":null,"RA_OF_ASC_NODE":"333.9859","COUNTRY_CODE":"US","OBJECT_NAME":"STARLINK-2088","SEMIMAJOR_AXIS":"6925.325","EPHEMERIS_TYPE":"0","BSTAR":"0.00010049000000","INCLINATION":"53.0552","CLASSIFICATION_TYPE":"U","APOAPSIS":"548.386","ECCENTRICITY":"0.00017270","NORAD_CAT_ID":"47371","CENTER_NAME":"EARTH","LAUNCH_DATE":"2021-01-20","REF_FRAME":"TEME","TLE_LINE1":"1 47371U 21005Y   22025.54546252  .00001216  00000-0  10049-3 0  9991","MEAN_ELEMENT_THEORY":"SGP4","REV_AT_EPOCH":"5633","OBJECT_TYPE":"PAYLOAD","MEAN_MOTION_DOT":"0.00001216","EPOCH":"2022-01-25T13:05:27.961728"},{"NORAD_CAT_ID":"47372","ECCENTRICITY":"0.00015950","APOAPSIS":"548.306","BSTAR":"-0.00002619600000","INCLINATION":"53.0562","CLASSIFICATION_TYPE":"U","EPHEMERIS_TYPE":"0","SEMIMAJOR_AXIS":"6925.336","OBJECT_NAME":"STARLINK-2089","COUNTRY_CODE":"US","RA_OF_ASC_NODE":"328.8352","DECAY_DATE":null,"REV_AT_EPOCH":"5640","OBJECT_TYPE":"PAYLOAD","MEAN_MOTION_DOT":"-0.00000672","EPOCH":"2022-01-25T13:49:52.321728","TLE_LINE1":"1 47372U 21005Z   22025.57630002 -.00000672  00000-0 -26196-4 0  9990","MEAN_ELEMENT_THEORY":"SGP4","REF_FRAME":"TEME","LAUNCH_DATE":"2021-01-20","CENTER_NAME":"EARTH","TLE_LINE2":"2 47372  53.0562 328.8352 0001595  63.7827 296.3325 15.06404025 56402","PERIOD":"95.592","TIME_SYSTEM":"UTC","ARG_OF_PERICENTER":"63.7827","SITE":"AFETR","MEAN_ANOMALY":"296.3325","MEAN_MOTION_DDOT":"0.0000000000000","OBJECT_ID":"2021-005Z","FILE":"3283407","RCS_SIZE":"LARGE","MEAN_MOTION":"15.06404025","ELEMENT_SET_NO":"999","PERIAPSIS":"546.097","GP_ID":"194610457"}];
